$$SOE
2460728.500000000, A.D. 2025-Feb-22 00:00:00.0000, -5.266082356473338E+09, 3.862128295133520E+09, 4.705451040824699E+08,
2460735.500000000, A.D. 2025-Mar-01 00:00:00.0000, -5.267059623742283E+09, 3.859329318426933E+09, 4.709586292715657E+08,
2460742.500000000, A.D. 2025-Mar-08 00:00:00.0000, -5.268035981780984E+09, 3.856529584100447E+09, 4.713720730219660E+08,
2460749.500000000, A.D. 2025-Mar-15 00:00:00.0000, -5.269011425646509E+09, 3.853729094378861E+09, 4.717854349140670E+08,
2460756.500000000, A.D. 2025-Mar-22 00:00:00.0000, -5.269985951566502E+09, 3.850927853629951E+09, 4.721987147766957E+08,
2460763.500000000, A.D. 2025-Mar-29 00:00:00.0000, -5.270959557800238E+09, 3.848125866532336E+09, 4.726119126222391E+08,
2460770.500000000, A.D. 2025-Apr-05 00:00:00.0000, -5.271932243805127E+09, 3.845323137127069E+09, 4.730250284993618E+08,
2460777.500000000, A.D. 2025-Apr-12 00:00:00.0000, -5.272904009634586E+09, 3.842519668857141E+09, 4.734380624481494E+08,
2460784.500000000, A.D. 2025-Apr-19 00:00:00.0000, -5.273874855754486E+09, 3.839715464713842E+09, 4.738510145025432E+08,
2460791.500000000, A.D. 2025-Apr-26 00:00:00.0000, -5.274844783006523E+09, 3.836910527287291E+09, 4.742638846982849E+08,
2460798.500000000, A.D. 2025-May-03 00:00:00.0000, -5.275813792604810E+09, 3.834104858740652E+09, 4.746766730773005E+08,
2460805.500000000, A.D. 2025-May-10 00:00:00.0000, -5.276781886137137E+09, 3.831298460717120E+09, 4.750893796864192E+08,
2460812.500000000, A.D. 2025-May-17 00:00:00.0000, -5.277749065534141E+09, 3.828491334138896E+09, 4.755020045635743E+08,
2460819.500000000, A.D. 2025-May-24 00:00:00.0000, -5.278715332832457E+09, 3.825683478844021E+09, 4.759145476909914E+08,
2460826.500000000, A.D. 2025-May-31 00:00:00.0000, -5.279680689314125E+09, 3.822874893372276E+09, 4.763270089024105E+08,
2460833.500000000, A.D. 2025-Jun-07 00:00:00.0000, -5.280645134423124E+09, 3.820065576105166E+09, 4.767393878795488E+08,
2460840.500000000, A.D. 2025-Jun-14 00:00:00.0000, -5.281608666823653E+09, 3.817255527093326E+09, 4.771516844001901E+08,
2460847.500000000, A.D. 2025-Jun-21 00:00:00.0000, -5.282571286383337E+09, 3.814444747300198E+09, 4.775638984589846E+08,
2460854.500000000, A.D. 2025-Jun-28 00:00:00.0000, -5.283532993953202E+09, 3.811633237026807E+09, 4.779760301182785E+08,
2460861.500000000, A.D. 2025-Jul-05 00:00:00.0000, -5.284493790461117E+09, 3.808820995674279E+09, 4.783880794043648E+08,
2460868.500000000, A.D. 2025-Jul-12 00:00:00.0000, -5.285453676509719E+09, 3.806008022038907E+09, 4.788000462926443E+08,
2460875.500000000, A.D. 2025-Jul-19 00:00:00.0000, -5.286412652289234E+09, 3.803194314564848E+09, 4.792119307173777E+08,
2460882.500000000, A.D. 2025-Jul-26 00:00:00.0000, -5.287370717595272E+09, 3.800379871498031E+09, 4.796237325822334E+08,
2460889.500000000, A.D. 2025-Aug-02 00:00:00.0000, -5.288327871886215E+09, 3.797564690963082E+09, 4.800354517675195E+08,
2460896.500000000, A.D. 2025-Aug-09 00:00:00.0000, -5.289284114356769E+09, 3.794748770948869E+09, 4.804470881308882E+08,
2460903.500000000, A.D. 2025-Aug-16 00:00:00.0000, -5.290239443950737E+09, 3.791932109139694E+09, 4.808586414894774E+08,
2460910.500000000, A.D. 2025-Aug-23 00:00:00.0000, -5.291193859020411E+09, 3.789114702608916E+09, 4.812701115581901E+08,
2460917.500000000, A.D. 2025-Aug-30 00:00:00.0000, -5.292147356303601E+09, 3.786296548089262E+09, 4.816814978725433E+08,
2460924.500000000, A.D. 2025-Sep-06 00:00:00.0000, -5.293099930636483E+09, 3.783477643820307E+09, 4.820927999081330E+08,
2460931.500000000, A.D. 2025-Sep-13 00:00:00.0000, -5.294051577072971E+09, 3.780657990490392E+09, 4.825040173473251E+08,
2460938.500000000, A.D. 2025-Sep-20 00:00:00.0000, -5.295002292137417E+09, 3.777837589628704E+09, 4.829151500588014E+08,
2460945.500000000, A.D. 2025-Sep-27 00:00:00.0000, -5.295952073152069E+09, 3.775016442559278E+09, 4.833261979473748E+08,
2460952.500000000, A.D. 2025-Oct-04 00:00:00.0000, -5.296900917655993E+09, 3.772194550456281E+09, 4.837371609032843E+08,
2460959.500000000, A.D. 2025-Oct-11 00:00:00.0000, -5.297848823289115E+09, 3.769371914557799E+09, 4.841480388082974E+08,
2460966.500000000, A.D. 2025-Oct-18 00:00:00.0000, -5.298795787857688E+09, 3.766548536263955E+09, 4.845588315501957E+08,
2460973.500000000, A.D. 2025-Oct-25 00:00:00.0000, -5.299741809441700E+09, 3.763724417130699E+09, 4.849695390337234E+08,
2460980.500000000, A.D. 2025-Nov-01 00:00:00.0000, -5.300686886504778E+09, 3.760899558775163E+09, 4.853801611855474E+08,
2460987.500000000, A.D. 2025-Nov-08 00:00:00.0000, -5.301631017972095E+09, 3.758073962661611E+09, 4.857906979473312E+08,
2460994.500000000, A.D. 2025-Nov-15 00:00:00.0000, -5.302574203128479E+09, 3.755247629709911E+09, 4.862011492383866E+08,
2461001.500000000, A.D. 2025-Nov-22 00:00:00.0000, -5.303516440934071E+09, 3.752420559947073E+09, 4.866115148687270E+08,
2461008.500000000, A.D. 2025-Nov-29 00:00:00.0000, -5.304457728910802E+09, 3.749592753337299E+09, 4.870217945091321E+08,
2461015.500000000, A.D. 2025-Dec-06 00:00:00.0000, -5.305398063877190E+09, 3.746764211654923E+09, 4.874319879157863E+08,
2461022.500000000, A.D. 2025-Dec-13 00:00:00.0000, -5.306337444097797E+09, 3.743934938030263E+09, 4.878420950941184E+08,
2461029.500000000, A.D. 2025-Dec-20 00:00:00.0000, -5.307275869354229E+09, 3.741104935191904E+09, 4.882521161649539E+08,
2461036.500000000, A.D. 2025-Dec-27 00:00:00.0000, -5.308213340011483E+09, 3.738274204997141E+09, 4.886620512431552E+08,
2461043.500000000, A.D. 2026-Jan-03 00:00:00.0000, -5.309149856538858E+09, 3.735442748635583E+09, 4.890719004122751E+08,
2461050.500000000, A.D. 2026-Jan-10 00:00:00.0000, -5.310085419375679E+09, 3.732610566827678E+09, 4.894816637297022E+08,
2461057.500000000, A.D. 2026-Jan-17 00:00:00.0000, -5.311020028909270E+09, 3.729777659927427E+09, 4.898913412335503E+08,
2461064.500000000, A.D. 2026-Jan-24 00:00:00.0000, -5.311953685487240E+09, 3.726944027952841E+09, 4.903009329460890E+08,
2461071.500000000, A.D. 2026-Jan-31 00:00:00.0000, -5.312886389440595E+09, 3.724109670537628E+09, 4.907104388710706E+08,
2461078.500000000, A.D. 2026-Feb-07 00:00:00.0000, -5.313818141056215E+09, 3.721274586747743E+09, 4.911198589747233E+08,
2461085.500000000, A.D. 2026-Feb-14 00:00:00.0000, -5.314748940245584E+09, 3.718438774748341E+09, 4.915291931260738E+08,
2461092.500000000, A.D. 2026-Feb-21 00:00:00.0000, -5.315678785522252E+09, 3.715602231898984E+09, 4.919384410083020E+08,
2461099.500000000, A.D. 2026-Feb-28 00:00:00.0000, -5.316607673372831E+09, 3.712764956431185E+09, 4.923476021949935E+08,
2461106.500000000, A.D. 2026-Mar-07 00:00:00.0000, -5.317535600080121E+09, 3.709926948758663E+09, 4.927566764208169E+08,
2461113.500000000, A.D. 2026-Mar-14 00:00:00.0000, -5.318462563222600E+09, 3.707088210087737E+09, 4.931656636014900E+08,
2461120.500000000, A.D. 2026-Mar-21 00:00:00.0000, -5.319388561067451E+09, 3.704248741225915E+09, 4.935745636764379E+08,
2461127.500000000, A.D. 2026-Mar-28 00:00:00.0000, -5.320313591866488E+09, 3.701408542617342E+09, 4.939833765426462E+08,
2461134.500000000, A.D. 2026-Apr-04 00:00:00.0000, -5.321237653658696E+09, 3.698567614639501E+09, 4.943921020563025E+08,
2461141.500000000, A.D. 2026-Apr-11 00:00:00.0000, -5.322160744305507E+09, 3.695725957801173E+09, 4.948007400478883E+08,
2461148.500000000, A.D. 2026-Apr-18 00:00:00.0000, -5.323082861599344E+09, 3.692883572834951E+09, 4.952092903357496E+08,
2461155.500000000, A.D. 2026-Apr-25 00:00:00.0000, -5.324004003399423E+09, 3.690040460699008E+09, 4.956177527353647E+08,
2461162.500000000, A.D. 2026-May-02 00:00:00.0000, -5.324924167763752E+09, 3.687196622458488E+09, 4.960261270592439E+08,
2461169.500000000, A.D. 2026-May-09 00:00:00.0000, -5.325843352952373E+09, 3.684352058980303E+09, 4.964344130908062E+08,
2461176.500000000, A.D. 2026-May-16 00:00:00.0000, -5.326761556923487E+09, 3.681506770579694E+09, 4.968426105089874E+08,
2461183.500000000, A.D. 2026-May-23 00:00:00.0000, -5.327678776270381E+09, 3.678660757640973E+09, 4.972507188424525E+08,
2461190.500000000, A.D. 2026-May-30 00:00:00.0000, -5.328595006677371E+09, 3.675814022532026E+09, 4.976587376701696E+08,
2461197.500000000, A.D. 2026-Jun-06 00:00:00.0000, -5.329510245211983E+09, 3.672966569539058E+09, 4.980666668298509E+08,
2461204.500000000, A.D. 2026-Jun-13 00:00:00.0000, -5.330424490787316E+09, 3.670118403020519E+09, 4.984745063141448E+08,
2461211.500000000, A.D. 2026-Jun-20 00:00:00.0000, -5.331337743295682E+09, 3.667269526706374E+09, 4.988822561394780E+08,
2461218.500000000, A.D. 2026-Jun-27 00:00:00.0000, -5.332250003111796E+09, 3.664419943802886E+09, 4.992899163152757E+08,
2461225.500000000, A.D. 2026-Jul-04 00:00:00.0000, -5.333161270965676E+09, 3.661569657128039E+09, 4.996974868499889E+08,
2461232.500000000, A.D. 2026-Jul-11 00:00:00.0000, -5.334071547931337E+09, 3.658718669145775E+09, 5.001049677595632E+08,
2461239.500000000, A.D. 2026-Jul-18 00:00:00.0000, -5.334980835438552E+09, 3.655866981924794E+09, 5.005123590717020E+08,
2461246.500000000, A.D. 2026-Jul-25 00:00:00.0000, -5.335889135283289E+09, 3.653014597024750E+09, 5.009196608236573E+08,
2461253.500000000, A.D. 2026-Aug-01 00:00:00.0000, -5.336796449588711E+09, 3.650161515261761E+09, 5.013268730450292E+08,
2461260.500000000, A.D. 2026-Aug-08 00:00:00.0000, -5.337702780501943E+09, 3.647307736317451E+09, 5.017339957027662E+08,
2461267.500000000, A.D. 2026-Aug-15 00:00:00.0000, -5.338608129211613E+09, 3.644453258642028E+09, 5.021410286070356E+08,
2461274.500000000, A.D. 2026-Aug-22 00:00:00.0000, -5.339512495047319E+09, 3.641598080872835E+09, 5.025479714474916E+08,
2461281.500000000, A.D. 2026-Aug-29 00:00:00.0000, -5.340415876950256E+09, 3.638742203395830E+09, 5.029548240576971E+08,
2461288.500000000, A.D. 2026-Sep-05 00:00:00.0000, -5.341318275181444E+09, 3.635885627181976E+09, 5.033615864776137E+08,
2461295.500000000, A.D. 2026-Sep-12 00:00:00.0000, -5.342219690812768E+09, 3.633028352394374E+09, 5.037682587929697E+08,
$$EOE